OBJECT_NAME,OBJECT_ID,EPOCH,MEAN_MOTION,ECCENTRICITY,INCLINATION,RA_OF_ASC_NODE,ARG_OF_PERICENTER,MEAN_ANOMALY,EPHEMERIS_TYPE,CLASSIFICATION_TYPE,NORAD_CAT_ID,ELEMENT_SET_NO,REV_AT_EPOCH,BSTAR,MEAN_MOTION_DOT,MEAN_MOTION_DDOT
FLOCK 4G-28,2025-009AB,2025-03-10T21:03:47.924064,15.18766062,.000543,97.4386,151.6899,130.9084,229.2621,0,U,62634,999,835,.50108E-3,.10358E-3,0
GARAI-A,2025-009AC,2025-03-11T04:53:20.146560,15.19104041,.0004052,97.4357,151.9943,136.7592,223.3961,0,U,62635,999,840,.5814E-3,.12148E-3,0
FLOCK 4G-20,2025-009AD,2025-03-10T18:03:17.512992,15.18477647,.0003895,97.4300,151.4867,139.2218,220.9309,0,U,62636,999,833,.42735E-3,.8747E-4,0
FLOCK 4G-24,2025-009AE,2025-03-10T21:06:30.378528,15.18776415,.0004447,97.4390,151.6885,119.3419,240.8260,0,U,62637,999,835,.55318E-3,.11445E-3,0
FLOCK 4G-16,2025-009AF,2025-03-10T19:12:51.122880,15.19795853,.0003225,97.4294,151.5743,152.0517,208.0892,0,U,62638,999,834,.11843E-2,.2536E-3,0
FLOCK 4G-3,2025-009AG,2025-03-10T21:04:55.249536,15.18731626,.0004279,97.4388,151.6874,124.9157,235.2480,0,U,62639,999,834,.47074E-3,.9714E-4,0
2025-009AH,2025-009AH,2025-03-10T21:04:39.453888,15.18811038,.0003548,97.4317,151.6393,139.1562,220.9939,0,U,62640,999,835,.54948E-3,.11379E-3,0
FLOCK 4G-27,2025-009AJ,2025-03-10T21:07:44.164992,15.18637470,.0003823,97.4309,151.6265,131.3214,228.8350,0,U,62641,999,834,.46705E-3,.9611E-4,0
FLOCK 4G-29,2025-009AK,2025-03-10T21:07:25.132800,15.18654655,.0004605,97.4384,151.6836,121.1625,239.0061,0,U,62642,999,834,.47931E-3,.9871E-4,0
FLOCK 4G-32,2025-009AL,2025-03-10T21:08:59.485920,15.18597859,.0003531,97.4310,151.6263,134.4298,225.7225,0,U,62643,999,834,.47827E-3,.9832E-4,0
2025-009AM,2025-009AM,2025-03-10T17:40:48.997344,15.19302212,.0003807,97.4397,151.5797,122.2272,237.9332,0,U,62644,999,832,.68171E-3,.14341E-3,0
FLOCK 4G-22,2025-009AN,2025-03-10T17:46:33.031776,15.18903618,.0004166,97.4376,151.5588,126.6068,233.5550,0,U,62645,999,833,.49785E-3,.1033E-3,0
FLOCK 4G-25,2025-009AP,2025-03-10T17:49:12.736992,15.18914191,.0003301,97.4374,151.5536,123.0830,237.0722,0,U,62646,999,833,.51907E-3,.10776E-3,0
FLOCK 4G-23,2025-009AQ,2025-03-10T19:23:55.147488,15.18830975,.0003304,97.4315,151.5777,147.0964,213.0476,0,U,62647,999,834,.48019E-3,.9939E-4,0
LIME,2025-009AR,2025-03-10T19:16:58.941408,15.19214250,.0003046,97.4297,151.5731,153.0769,207.0624,0,U,62648,999,834,.72645E-3,.15249E-3,0
2025-009AS,2025-009AS,2025-03-10T18:54:47.291904,15.20059756,.000315,97.4373,151.6446,132.1329,228.0174,0,U,62649,999,834,.97111E-3,.20929E-3,0
FLOCK 4G-34,2025-009AT,2025-03-10T17:49:56.364672,15.18839886,.0003105,97.4326,151.5199,130.3965,229.7541,0,U,62650,999,833,.52495E-3,.10876E-3,0
FLOCK 4G-21,2025-009AU,2025-03-10T19:15:35.678592,15.19110494,.0002809,97.4361,151.6158,133.9499,226.1968,0,U,62651,999,834,.54218E-3,.11323E-3,0
FLOCK 4G-31,2025-009AV,2025-03-10T19:23:07.694016,15.18850395,.0002886,97.4333,151.5903,138.9826,221.1625,0,U,62652,999,834,.47997E-3,.994E-4,0
PAUSAT-1,2025-009AW,2025-03-10T21:09:41.491008,15.18418586,.0002898,97.4328,151.6397,125.5237,234.6267,0,U,62653,999,835,.34068E-3,.6945E-4,0
2025-009AX,2025-009AX,2025-03-10T22:25:39.865152,15.18810277,.0003505,97.4404,151.7760,116.0876,244.0719,0,U,62654,999,836,.27291E-3,.5613E-4,0
2025-009AY,2025-009AY,2025-03-10T04:38:31.336800,15.20030444,.0002815,97.4406,151.0887,119.8358,240.3157,0,U,62655,999,825,.96441E-3,.20766E-3,0
2025-009AZ,2025-009AZ,2025-03-10T19:05:28.982976,15.19475747,.0002297,97.4307,151.5908,152.5273,207.6084,0,U,62656,999,834,.65828E-3,.13913E-3,0
2025-009BA,2025-009BA,2025-03-10T05:00:11.149632,15.19107944,.0003313,97.4318,151.0038,110.3684,249.7907,0,U,62657,999,825,.59391E-3,.12412E-3,0
TROLL,2025-009BB,2025-03-10T19:05:41.834976,15.19420932,.0001997,97.4261,151.5590,168.8208,191.3072,0,U,62658,999,6283,.56247E-3,.11856E-3,0
FLOCK 4G-4,2025-009BC,2025-03-10T18:18:31.034016,15.18371127,.0003885,97.4322,151.4864,144.1568,215.9927,0,U,62659,999,6594,.56692E-3,.11594E-3,0
FLOCK 4G-6,2025-009BD,2025-03-11T03:37:24.964896,15.18532260,.0004584,97.4311,151.8765,151.1016,209.0473,0,U,62660,999,6598,.46581E-3,.9557E-4,0
FLOCK 4G-2,2025-009BE,2025-03-10T18:14:32.913888,15.18490328,.000584,97.4376,151.5363,144.9769,215.1850,0,U,62661,999,6594,.59434E-3,.12204E-3,0
FLOCK 4G-5,2025-009BG,2025-03-10T18:21:28.980864,15.18306894,.0005956,97.4384,151.5359,144.6926,215.4704,0,U,62663,999,833,.5902E-3,.12055E-3,0
LYRA-1,2025-009BH,2025-03-10T17:04:53.653440,15.10304625,.0009042,97.4397,151.2793,349.1610,10.9424,0,U,62664,999,831,.40083E-3,.6512E-4,0
JAY-D2,2025-009BJ,2025-03-11T04:08:19.721472,15.17626269,.0005759,97.4264,151.8479,142.9252,217.2380,0,U,62665,999,839,.37853E-3,.7553E-4,0
FLOCK 4G-1,2025-009BK,2025-03-10T18:22:21.530208,15.18330881,.0006091,97.4390,151.5367,146.0078,214.1547,0,U,62666,999,833,.59252E-3,.12111E-3,0
FLOCK 4G-14,2025-009BL,2025-03-10T18:28:32.900736,15.18074466,.0006426,97.4392,151.5320,143.7787,216.3883,0,U,62667,999,833,.55235E-3,.11202E-3,0
JAY-C,2025-009BM,2025-03-11T04:09:41.143968,15.17624531,.0005813,97.4332,151.8658,146.6481,213.5120,0,U,62668,999,6603,.32943E-3,.6563E-4,0
JAY-D1,2025-009BN,2025-03-11T04:08:33.072864,15.17623116,.0006626,97.4397,151.8913,148.7061,211.4568,0,U,62669,999,839,.33414E-3,.6659E-4,0
FLOCK 4G-10,2025-009BP,2025-03-10T18:27:43.227648,15.18071475,.0006197,97.4301,151.4672,155.4586,204.6944,0,U,62670,999,6597,.52814E-3,.10706E-3,0
SKYBEE-A01,2025-009BQ,2025-03-11T04:10:29.807904,15.17549968,.0006675,97.4357,151.8839,141.5922,218.5788,0,U,62671,999,839,.25139E-3,.4982E-4,0
2025-009BR,2025-009BR,2025-03-10T18:42:53.347968,15.17606514,.0006068,97.4328,151.4743,146.1582,214.0040,0,U,62672,999,6597,.39355E-3,.7851E-4,0
IMPULSE-2 MIRA,2025-009BS,2025-03-10T20:19:43.250304,15.17384733,.0006276,97.2037,150.5370,92.3585,267.8368,0,U,62673,999,834,.33045E-3,.6542E-4,0
2025-009BT,2025-009BT,2025-03-10T18:25:25.002336,15.18333294,.0007014,97.4430,151.5630,138.2790,221.8980,0,U,62674,999,6597,.66582E-3,.13623E-3,0
FLOCK 4G-36,2025-009BU,2025-03-10T18:33:57.165984,15.18016646,.0006564,97.4383,151.5215,144.4939,215.6733,0,U,62675,999,833,.57686E-3,.11683E-3,0
FOSSASAT-2E19 (TAT-E),2025-009BV,2025-03-10T15:41:17.100096,15.17311285,.0006732,97.4313,151.3251,148.1816,211.9826,0,U,62676,999,831,.24682E-3,.4856E-4,0
ELEVATION-1,2025-009BW,2025-03-10T18:04:41.519712,15.19236145,.0006404,97.4305,151.4925,157.0133,203.1390,0,U,62677,999,6597,.13542E-2,.28565E-3,0
FLOCK 4G-15,2025-009BX,2025-03-10T18:25:23.791008,15.18214217,.0006829,97.4385,151.5288,142.1602,218.0113,0,U,62678,999,6597,.6233E-3,.12703E-3,0
FLOCK 4G-30,2025-009BY,2025-03-10T18:37:26.194368,15.17882359,.0006057,97.4302,151.4597,161.3999,198.7457,0,U,62679,999,6597,.50774E-3,.10233E-3,0
FLOCK 4G-18,2025-009BZ,2025-03-10T18:38:17.752704,15.17866659,.0006951,97.4378,151.5154,152.2075,207.9532,0,U,62680,999,6597,.54713E-3,.1103E-3,0
FLOCK 4G-17,2025-009CA,2025-03-10T18:22:14.617344,15.18295637,.0006461,97.4306,151.4739,160.0010,200.1478,0,U,62681,999,6597,.58286E-3,.11901E-3,0
FOREST-3,2025-009CB,2025-03-11T04:10:43.587840,15.17817096,.000675,97.4269,151.8215,156.4952,203.6591,0,U,62682,999,839,.50622E-3,.10184E-3,0
FLOCK 4G-35,2025-009CC,2025-03-10T18:39:01.142784,15.17916891,.0007033,97.4369,151.5075,143.0123,217.1597,0,U,62683,999,6597,.57111E-3,.11534E-3,0
IRIS-F2,2025-009CD,2025-03-10T17:07:20.896320,15.17678361,.0007433,97.4264,151.3652,157.0495,203.1072,0,U,62684,999,6596,.38597E-3,.7717E-4,0
FLOCK 4G-33,2025-009CE,2025-03-11T04:16:00.452928,15.17658170,.0007071,97.4313,151.8483,147.8021,212.3646,0,U,62685,999,839,.41335E-3,.8264E-4,0
FOSSASAT-2E18 (TAT-A),2025-009CF,2025-03-10T17:22:31.641312,15.17235065,.0007348,97.4329,151.3989,146.4646,213.7054,0,U,62686,999,832,.26322E-3,.5173E-4,0
HYPE,2025-009CG,2025-03-10T17:47:59.714304,15.20692505,.000159,97.4499,151.6305,82.7059,277.4357,0,U,62687,999,832,.19914E-2,.43921E-3,0
BLUEBON,2025-009CH,2025-03-10T19:24:28.411488,15.19386069,.0002875,97.4343,151.6026,153.9965,206.1414,0,U,62688,999,831,.84857E-3,.17919E-3,0
2025-009CJ,2025-009CJ,2025-03-10T18:07:03.247680,15.19745754,.0007898,97.4327,151.5057,142.0192,218.1601,0,U,62689,999,830,.14448E-2,.30951E-3,0
HADES-R,2025-009CK,2025-03-10T21:07:47.723808,15.20250507,.0002283,97.4175,151.5468,69.8251,290.3229,0,U,62690,999,832,.17784E-2,.38689E-3,0
2025-009CL,2025-009CL,2025-03-10T18:31:46.216416,15.18614341,.000365,97.4181,151.3900,74.9600,285.2038,0,U,62691,999,830,.10985E-2,.22721E-3,0
HYDRA-T,2025-009CM,2025-03-10T17:53:21.675264,15.20374739,.0002002,97.4173,151.4215,62.9758,297.1681,0,U,62692,999,830,.17509E-2,.38225E-3,0
2025-009CN,2025-009CN,2025-03-09T23:05:57.885792,15.19639909,.0002327,97.4508,150.8385,88.2020,271.9481,0,U,62693,999,6585,.16824E-2,.35941E-3,0
LEMUR-2-WILSON,2025-009CP,2025-03-11T04:25:44.869440,14.91840192,.0004814,97.7390,151.7505,129.6669,230.4975,0,U,62694,999,824,.45327E-3,.4522E-4,0
CONNECTA IOT-8,2025-009CQ,2025-03-10T18:46:25.783104,14.91617517,.0004127,97.7430,151.3787,107.2442,252.9229,0,U,62695,999,818,.14797E-3,.143E-4,0
LEMUR-2-STAR-FOX,2025-009CR,2025-03-11T03:54:53.160192,14.92859741,.0003612,97.7424,151.7972,124.4900,235.6661,0,U,62696,999,824,.11075E-2,.11429E-3,0
IRIDE-MS2-HEO-1,2025-009CS,2025-03-10T20:12:50.126112,14.91952691,.0003788,97.7416,151.4441,116.0690,244.0919,0,U,62697,999,819,.49016E-3,.4909E-4,0
ICEYE-X42,2025-009CT,2025-03-11T04:05:21.772896,14.92247739,.0003294,97.7409,151.7807,126.2656,233.8868,0,U,62698,999,824,.523E-3,.5281E-4,0
LEMUR-2-ARIANNA,2025-009CU,2025-03-11T03:49:25.406976,14.92915517,.0003532,97.7390,151.7856,146.8067,213.3374,0,U,62699,999,824,.969E-3,.10005E-3,0
ICEYE-X41,2025-009CV,2025-03-11T04:01:10.712640,14.92390823,.0003019,97.7416,151.7886,124.9118,235.2385,0,U,62700,999,824,.58273E-3,.5912E-4,0
FIREFLY-1,2025-009CW,2025-03-11T04:07:37.072704,14.92143402,.0003341,97.7431,151.7890,112.2069,247.9505,0,U,62701,999,824,.42952E-3,.4315E-4,0
